NORAD_CAT_ID,OBJECT_NAME,OBJECT_TYPE,EPOCH,MEAN_MOTION,ECCENTRICITY,INCLINATION,RA_OF_ASC_NODE,ARG_OF_PERICENTER,MEAN_ANOMALY,BSTAR,MEAN_MOTION_DOT,MEAN_MOTION_DDOT,TLE_LINE0,TLE_LINE1,TLE_LINE2,SEMIMAJOR_AXIS,PERIOD,APOGEE,PERIGEE,DECAYED
53714.0,STARLINK-4688,PAYLOAD,2024-04-27 04:28:07,15.08849962,0.0001121,53.2172,48.2792,98.9167,261.1952,0.00029073,4.343e-05,0.0,0 STARLINK-4688,1 53714U 22107Q   24118.18619796  .00004343  00000-0  29073-3 0  9993,2 53714  53.2172  48.2792 0001121  98.9167 261.1952 15.08849962 91434,6917.85,95.437,540.49,538.939,0.0
53714.0,STARLINK-4688,PAYLOAD,2024-04-27 12:25:02,15.08859931,0.0001321,53.2181,46.7932,75.0447,285.0691,0.00036906,5.594e-05,0.0,0 STARLINK-4688,1 53714U 22107Q   24118.51739179  .00005594  00000-0  36906-3 0  9990,2 53714  53.2181  46.7932 0001321  75.0447 285.0691 15.08859931 91928,6917.819,95.436,540.598,538.771,0.0
53714.0,STARLINK-4688,PAYLOAD,2024-04-28 04:18:55,15.0883295,0.000117,53.2164,43.8224,75.6038,284.5084,-0.00013242,-2.394e-05,0.0,0 STARLINK-4688,1 53714U 22107Q   24119.17980485 -.00002394  00000-0 -13242-3 0  9996,2 53714  53.2164  43.8224 0001170  75.6038 284.5084 15.08832950 91589,6917.902,95.438,540.576,538.958,0.0
53714.0,STARLINK-4688,PAYLOAD,2024-04-28 12:15:50,15.08839032,0.0001271,53.2171,42.3376,75.1709,284.9424,6.0225e-05,6.71e-06,0.0,0 STARLINK-4688,1 53714U 22107Q   24119.51100461  .00000671  00000-0  60225-4 0  9990,2 53714  53.2171  42.3376 0001271  75.1709 284.9424 15.08839032 92076,6917.883,95.438,540.628,538.869,0.0
53714.0,STARLINK-4688,PAYLOAD,2024-04-29 12:06:38,15.08848987,0.0001339,53.2171,37.8739,88.9377,271.1768,0.00057286,8.843e-05,0.0,0 STARLINK-4688,1 53714U 22107Q   24120.50460717  .00008843  00000-0  57286-3 0  9995,2 53714  53.2171  37.8739 0001339  88.9377 271.1768 15.08848987 91781,6917.853,95.437,540.644,538.792,0.0
53714.0,STARLINK-4688,PAYLOAD,2024-04-29 21:38:57,15.08844615,0.0001806,53.2177,36.0905,91.2165,268.9034,0.00031291,4.696e-05,0.0,0 STARLINK-4688,1 53714U 22107Q   24120.90204934  .00004696  00000-0  31291-3 0  9996,2 53714  53.2177  36.0905 0001806  91.2165 268.9034 15.08844615 92284,6917.866,95.437,540.981,538.482,0.0
53714.0,STARLINK-4688,PAYLOAD,2024-04-30 00:49:43,15.08839131,0.0001581,53.2195,35.4968,84.043,276.0743,0.00019104,2.754e-05,0.0,0 STARLINK-4688,1 53714U 22107Q   24121.03453123  .00002754  00000-0  19104-3 0  9999,2 53714  53.2195  35.4968 0001581  84.0430 276.0743 15.08839131 91868,6917.883,95.438,540.842,538.654,0.0
53714.0,STARLINK-4688,PAYLOAD,2024-04-30 21:29:44,15.08843442,0.0001426,53.2186,31.6303,84.0183,276.0971,0.00019158,2.763e-05,0.0,0 STARLINK-4688,1 53714U 22107Q   24121.89565013  .00002763  00000-0  19158-3 0  9994,2 53714  53.2186  31.6303 0001426  84.0183 276.0971 15.08843442 92439,6917.87,95.437,540.721,538.748,0.0
53714.0,STARLINK-4688,PAYLOAD,2024-05-01 03:51:16,15.08845336,0.0001457,53.2187,30.44,85.5475,274.5683,0.00017774,2.542e-05,0.0,0 STARLINK-4688,1 53714U 22107Q   24122.16060919  .00002542  00000-0  17774-3 0  9997,2 53714  53.2187  30.4400 0001457  85.5475 274.5683 15.08845336 92032,6917.864,95.437,540.737,538.721,0.0
53714.0,STARLINK-4688,PAYLOAD,2024-05-02 03:42:03,15.08840537,0.0001452,53.2189,25.9789,86.0979,274.0179,8.0568e-05,9.95e-06,0.0,0 STARLINK-4688,1 53714U 22107Q   24123.15421027  .00000995  00000-0  80568-4 0  9990,2 53714  53.2189  25.9789 0001452  86.0979 274.0179 15.08840537 92182,6917.879,95.438,540.748,538.739,0.0
53714.0,STARLINK-4688,PAYLOAD,2024-05-02 10:03:35,15.08848423,0.0001458,53.219,24.7918,94.934,265.1819,0.00014963,2.095e-05,0.0,0 STARLINK-4688,1 53714U 22107Q   24123.41916582  .00002095  00000-0  14963-3 0  9992,2 53714  53.2190  24.7918 0001458  94.9340 265.1819 15.08848423 92668,6917.855,95.437,540.728,538.711,0.0
53714.0,STARLINK-4688,PAYLOAD,2024-05-03 09:54:22,15.08857026,0.0001229,53.2178,20.3306,84.4395,275.6737,0.00033976,5.126e-05,0.0,0 STARLINK-4688,1 53714U 22107Q   24124.41276069  .00005126  00000-0  33976-3 0  9995,2 53714  53.2178  20.3306 0001229  84.4395 275.6737 15.08857026 92379,6917.828,95.436,540.544,538.843,0.0
53714.0,STARLINK-4688,PAYLOAD,2024-05-03 21:02:05,15.08818475,0.0001313,53.2178,18.2516,97.0275,263.0866,-0.00035239,-5.888e-05,0.0,0 STARLINK-4688,1 53714U 22107Q   24124.87645811 -.00005888  00000-0 -35239-3 0  9991,2 53714  53.2178  18.2516 0001313  97.0275 263.0866 15.08818475 92446,6917.946,95.439,540.72,538.903,0.0
53714.0,STARLINK-4688,PAYLOAD,2024-05-03 22:37:29,15.08818801,0.0001266,53.2177,17.9535,93.4506,266.6631,-0.00035522,-5.933e-05,0.0,0 STARLINK-4688,1 53714U 22107Q   24124.94269862 -.00005933  00000-0 -35522-3 0  9993,2 53714  53.2177  17.9535 0001266  93.4506 266.6631 15.08818801 92897,6917.945,95.439,540.686,538.934,0.0
53714.0,STARLINK-4688,PAYLOAD,2024-05-04 09:45:11,15.08826005,0.0001247,53.2173,15.8719,88.649,271.4646,-8.5254e-05,-1.644e-05,0.0,0 STARLINK-4688,1 53714U 22107Q   24125.40638138 -.00001644  00000-0 -85254-4 0  9994,2 53714  53.2173  15.8719 0001247  88.6490 271.4646 15.08826005 92526,6917.923,95.438,540.651,538.926,0.0
53714.0,STARLINK-4688,PAYLOAD,2024-05-05 01:39:03,15.08845912,0.0001139,53.2168,12.8974,84.4757,275.6365,0.0011671,0.00018338,0.0,0 STARLINK-4688,1 53714U 22107Q   24126.06878585  .00018338  00000-0  11671-2 0  9995,2 53714  53.2168  12.8974 0001139  84.4757 275.6365 15.08845912 92623,6917.862,95.437,540.515,538.939,0.0
53714.0,STARLINK-4688,PAYLOAD,2024-05-05 20:43:40,15.08860443,0.0001142,53.2168,9.3294,83.5403,276.5719,0.00094811,0.00014842,0.0,0 STARLINK-4688,1 53714U 22107Q   24126.86366168  .00014842  00000-0  94811-3 0  9996,2 53714  53.2168   9.3294 0001142  83.5403 276.5719 15.08860443 92743,6917.818,95.436,540.473,538.893,0.0
53714.0,STARLINK-4688,PAYLOAD,2024-05-05 22:19:03,15.0886164,0.0001164,53.2169,9.0318,82.4192,277.6932,0.00093603,0.00014649,0.0,0 STARLINK-4688,1 53714U 22107Q   24126.92990096  .00014649  00000-0  93603-3 0  9999,2 53714  53.2169   9.0318 0001164  82.4192 277.6932 15.08861640 93194,6917.814,95.436,540.484,538.874,0.0
53714.0,STARLINK-4688,PAYLOAD,2024-05-06 09:26:44,15.08872071,0.0001183,53.217,6.9503,82.2912,277.8214,0.00099139,0.00015539,0.0,0 STARLINK-4688,1 53714U 22107Q   24127.39357372  .00015539  00000-0  99139-3 0  9994,2 53714  53.2170   6.9503 0001183  82.2912 277.8214 15.08872071 93260,6917.782,95.436,540.466,538.829,0.0
53714.0,STARLINK-4688,PAYLOAD,2024-05-06 20:34:26,15.08857995,0.0001516,53.2171,4.8692,88.6797,271.4369,0.00038321,5.819e-05,0.0,0 STARLINK-4688,1 53714U 22107Q   24127.85725321  .00005819  00000-0  38321-3 0  9994,2 53714  53.2171   4.8692 0001516  88.6797 271.4369 15.08857995 92895,6917.825,95.436,540.739,538.642,0.0
53714.0,STARLINK-4688,PAYLOAD,2024-05-06 22:09:49,15.08862191,0.000187,53.2177,4.5707,100.6495,259.4708,0.00055513,8.563e-05,0.0,0 STARLINK-4688,1 53714U 22107Q   24127.92349220  .00008563  00000-0  55513-3 0  9993,2 53714  53.2177   4.5707 0001870 100.6495 259.4708 15.08862191 93346,6917.813,95.436,540.971,538.384,0.0
53714.0,STARLINK-4688,PAYLOAD,2024-05-07 09:17:31,15.08850406,0.0001252,53.2167,2.4871,96.9369,263.1765,0.00015909,2.246e-05,0.0,0 STARLINK-4688,1 53714U 22107Q   24128.38717116  .00002246  00000-0  15909-3 0  9994,2 53714  53.2167   2.4871 0001252  96.9369 263.1765 15.08850406 92974,6917.849,95.437,540.58,538.847,0.0
53714.0,STARLINK-4688,PAYLOAD,2024-05-07 20:25:14,15.0882598,0.0001247,53.2178,0.4088,76.021,284.092,-0.00031375,-5.276e-05,0.0,0 STARLINK-4688,1 53714U 22107Q   24128.85086156 -.00005276  00000-0 -31375-3 0  9992,2 53714  53.2178   0.4088 0001247  76.0210 284.0920 15.08825980 93045,6917.923,95.438,540.651,538.926,0.0
53714.0,STARLINK-4688,PAYLOAD,2024-05-07 22:00:37,15.08826591,0.0001286,53.2176,0.1112,76.1329,283.9806,-0.00025617,-4.361e-05,0.0,0 STARLINK-4688,1 53714U 22107Q   24128.91710234 -.00004361  00000-0 -25617-3 0  9996,2 53714  53.2176   0.1112 0001286  76.1329 283.9806 15.08826591 93492,6917.921,95.438,540.676,538.897,0.0
53714.0,STARLINK-4688,PAYLOAD,2024-05-08 20:16:02,15.08841271,0.0001209,53.2181,355.9468,93.8693,266.2437,0.00069472,0.00010786,0.0,0 STARLINK-4688,1 53714U 22107Q   24129.84446772  .00010786  00000-0  69472-3 0  9995,2 53714  53.2181 355.9468 0001209  93.8693 266.2437 15.08841271 93191,6917.877,95.437,540.578,538.905,0.0
53714.0,STARLINK-4688,PAYLOAD,2024-05-08 21:51:25,15.08845482,0.0001174,53.2175,355.6505,76.2107,283.9015,0.00087195,0.00013618,0.0,0 STARLINK-4688,1 53714U 22107Q   24129.91070839  .00013618  00000-0  87195-3 0  9999,2 53714  53.2175 355.6505 0001174  76.2107 283.9015 15.08845482 93645,6917.864,95.437,540.541,538.916,0.0
53714.0,STARLINK-4688,PAYLOAD,2024-05-09 01:02:11,15.08851564,0.0001173,53.2175,355.0555,73.3099,286.8022,0.0010927,0.00017151,0.0,0 STARLINK-4688,1 53714U 22107Q   24130.04318805  .00017151  00000-0  10927-2 0  9997,2 53714  53.2175 355.0555 0001173  73.3099 286.8022 15.08851564 93661,6917.845,95.437,540.522,538.899,0.0
53714.0,STARLINK-4688,PAYLOAD,2024-05-09 21:42:11,15.08858903,0.0001125,53.2172,351.1877,67.9817,292.1294,0.0006619,0.00010267,0.0,0 STARLINK-4688,1 53714U 22107Q   24130.90430224  .00010267  00000-0  66190-3 0  9997,2 53714  53.2172 351.1877 0001125  67.9817 292.1294 15.08858903 93795,6917.823,95.436,540.466,538.909,0.0
53714.0,STARLINK-4688,PAYLOAD,2024-05-10 07:14:29,15.08869155,0.0001134,53.2175,349.404,69.4402,290.6712,0.00073364,0.00011416,0.0,0 STARLINK-4688,1 53714U 22107Q   24131.30173574  .00011416  00000-0  73364-3 0  9992,2 53714  53.2175 349.4040 0001134  69.4402 290.6712 15.08869155 93853,6917.791,95.436,540.441,538.872,0.0
53714.0,STARLINK-4688,PAYLOAD,2024-05-10 19:57:35,15.08846967,0.0001071,53.2172,347.0254,75.8513,284.2598,0.00010355,1.361e-05,0.0,0 STARLINK-4688,1 53714U 22107Q   24131.83165852  .00001361  00000-0  10355-3 0  9999,2 53714  53.2172 347.0254 0001071  75.8513 284.2598 15.08846967 93492,6917.859,95.437,540.465,538.983,0.0
